NORAD_CAT_ID,OBJECT_NAME,OBJECT_TYPE,EPOCH,MEAN_MOTION,ECCENTRICITY,INCLINATION,RA_OF_ASC_NODE,ARG_OF_PERICENTER,MEAN_ANOMALY,BSTAR,MEAN_MOTION_DOT,MEAN_MOTION_DDOT,TLE_LINE0,TLE_LINE1,TLE_LINE2,SEMIMAJOR_AXIS,PERIOD,APOGEE,PERIGEE,DECAYED
50844.0,STARLINK-3326,PAYLOAD,2022-05-30 22:00:00,15.08867558,0.0002288,53.2181,248.6707,28.6665,182.0774,-0.0039756,-0.00063057,0.0,0 STARLINK-3326,1 50844U 22001AT  22150.91667824 -.00063057  00000-0 -39756-2 0  9994,2 50844  53.2181 248.6707 0002288  28.6665 182.0774 15.08867558 23399,6917.795999999999,95.436,541.244,538.078,0.0
50844.0,STARLINK-3326,PAYLOAD,2022-05-31 06:00:02,15.08820846,0.0002187,53.2185,247.1734,34.0379,188.36,0.0017794,0.0002813,0.0,0 STARLINK-3326,1 50844U 22001AT  22151.25002315  .00028130  00000-0  17794-2 0  9999,2 50844  53.2185 247.1734 0002187  34.0379 188.3600 15.08820846  1301,6917.939,95.439,541.317,538.2909999999998,0.0
50844.0,STARLINK-3326,PAYLOAD,2022-05-31 14:00:01,15.08827827,0.0002434,53.2184,245.679,31.3583,202.5636,0.00064573,0.0001,0.0,0 STARLINK-3326,1 50844U 22001AT  22151.58334491  .00010000  00000-0  64573-3 0  9993,2 50844  53.2184 245.6790 0002434  31.3583 202.5636 15.08827827 23495,6917.918000000002,95.438,541.466,538.099,0.0
50844.0,STARLINK-3326,PAYLOAD,2022-05-31 22:00:00,15.08861835,0.0002344,53.2183,244.1819,31.0645,214.4449,-0.0017570999999999,-0.00028162,0.0,0 STARLINK-3326,1 50844U 22001AT  22151.91667824 -.00028162  00000-0 -17571-2 0  9994,2 50844  53.2183 244.1819 0002344  31.0645 214.4449 15.08861835  1303,6917.814,95.436,541.3,538.057,0.0
50844.0,STARLINK-3326,PAYLOAD,2022-06-01 20:00:01,15.08860086,0.0002379,53.2179,240.0676,29.2049,158.2386,-0.0019164,-0.00030677,0.0,0 STARLINK-3326,1 50844U 22001AT  22152.83334491 -.00030677  00000-0 -19164-2 0  9991,2 50844  53.2179 240.0676 0002379  29.2049 158.2386 15.08860086 23686,6917.819,95.436,541.33,538.038,0.0
50844.0,STARLINK-3326,PAYLOAD,2022-06-02 17:25:46,15.08846281,0.0002313,53.2179,236.0587,33.327,326.7867,0.00011643,1.565e-05,0.0,0 STARLINK-3326,1 50844U 22001AT  22153.72623494  .00001565  00000-0  11643-3 0  9991,2 50844  53.2179 236.0587 0002313  33.3270 326.7867 15.08846281 23825,6917.861,95.437,541.326,538.126,0.0
50844.0,STARLINK-3326,PAYLOAD,2022-06-02 20:36:32,15.088486800000002,0.0002323,53.2178,235.46400000000003,33.2571,326.8566,0.00013698,1.893e-05,0.0,0 STARLINK-3326,1 50844U 22001AT  22153.85871310  .00001893  00000-0  13698-3 0  9993,2 50844  53.2178 235.4640 0002323  33.2571 326.8566 15.08848680 22563,6917.854,95.437,541.326,538.112,0.0
50844.0,STARLINK-3326,PAYLOAD,2022-06-03 12:30:24,15.08837831,0.0002288,53.2188,232.4904,34.1526,325.9613,-4.7787e-05,-1.049e-05,0.0,0 STARLINK-3326,1 50844U 22001AT  22154.52112199 -.00001049  00000-0 -47787-4 0  9993,2 50844  53.2188 232.4904 0002288  34.1526 325.9613 15.08837831 23946,6917.887,95.438,541.335,538.169,0.0
50844.0,STARLINK-3326,PAYLOAD,2022-06-03 20:27:20,15.08840432,0.0002345,53.2187,231.0036,33.6816,326.4324,-3.9927e-05,-9.24e-06,0.0,0 STARLINK-3326,1 50844U 22001AT  22154.85231937 -.00000924  00000-0 -39927-4 0  9999,2 50844  53.2187 231.0036 0002345  33.6816 326.4324 15.08840432 22716,6917.879,95.438,541.366,538.122,0.0
50844.0,STARLINK-3326,PAYLOAD,2022-06-04 04:24:16,15.08805393,0.0001646,53.2187,229.5167,32.3887,327.7206,0.0005006,7.681e-05,0.0,0 STARLINK-3326,1 50844U 22001AT  22155.18352852  .00007681  00000-0  50060-3 0  9991,2 50844  53.2187 229.5167 0001646  32.3887 327.7206 15.08805393 24048,6917.986,95.44,540.99,538.712,0.0
50844.0,STARLINK-3326,PAYLOAD,2022-06-04 10:45:48,15.08840049,0.0002326,53.2187,228.3271,33.2929,326.8209,3.7596e-05,3.1e-06,0.0,0 STARLINK-3326,1 50844U 22001AT  22155.44847695  .00000310  00000-0  37596-4 0  9996,2 50844  53.2187 228.3271 0002326  33.2929 326.8209 15.08840049 24088,6917.88,95.438,541.354,538.136,0.0
50844.0,STARLINK-3326,PAYLOAD,2022-06-04 12:21:11,15.08840638,0.0002325,53.2188,228.0298,32.7413,327.3723,4.079800000000001e-05,3.61e-06,0.0,0 STARLINK-3326,1 50844U 22001AT  22155.51471661  .00000361  00000-0  40798-4 0  9994,2 50844  53.2188 228.0298 0002325  32.7413 327.3723 15.08840638 22816,6917.878000000002,95.438,541.352,538.135,0.0
50844.0,STARLINK-3326,PAYLOAD,2022-06-05 22:00:00,15.08832662,0.0002286,53.2165,221.7369,29.8542,29.6645,-0.00056072,-9.2e-05,0.0,0 STARLINK-3326,1 50844U 22001AT  22156.91667824 -.00009200  00000-0 -56072-3 0  9991,2 50844  53.2165 221.7369 0002286  29.8542  29.6645 15.08832662 24305,6917.903,95.438,541.349,538.186,0.0
50844.0,STARLINK-3326,PAYLOAD,2022-06-06 14:00:01,15.08814791,0.0002514,53.2168,218.7458,29.4578,53.2366,0.0026397,0.00041945,0.0,0 STARLINK-3326,1 50844U 22001AT  22157.58334491  .00041945  00000-0  26397-2 0  9992,2 50844  53.2168 218.7458 0002514  29.4578  53.2366 15.08814791  1303,6917.956999999999,95.439,541.562,538.0830000000002,0.0
50844.0,STARLINK-3326,PAYLOAD,2022-06-06 22:00:00,15.08840581,0.0002371,53.217,217.2477,31.0175,63.2652,2.6317e-05,1.31e-06,0.0,0 STARLINK-3326,1 50844U 22001AT  22157.91667824  .00000131  00000-0  26317-4 0  9994,2 50844  53.2170 217.2477 0002371  31.0175  63.2652 15.08840581 24450,6917.879,95.438,541.384,538.1030000000002,0.0
50844.0,STARLINK-3326,PAYLOAD,2022-06-07 11:53:31,15.08848609,0.0002406,53.2183,214.6492,33.6658,326.4487,1.8118e-05,0.0,0.0,0 STARLINK-3326,1 50844U 22001AT  22158.49550543  .00000000  00000-0  18118-4 0  9992,2 50844  53.2183 214.6492 0002406  33.6658 326.4487 15.08848609 23262,6917.854,95.437,541.384,538.055,0.0
50844.0,STARLINK-3326,PAYLOAD,2022-06-07 15:04:17,15.08850269,0.0002418,53.2183,214.0545,33.7184,326.3962,3.2089000000000004e-05,2.22e-06,0.0,0 STARLINK-3326,1 50844U 22001AT  22158.62798321  .00000222  00000-0  32089-4 0  9994,2 50844  53.2183 214.0545 0002418  33.7184 326.3962 15.08850269 24569,6917.849,95.437,541.387,538.0409999999998,0.0
50844.0,STARLINK-3326,PAYLOAD,2022-06-08 11:44:19,15.08835193,0.000245,53.2182,210.189,33.6908,326.4239,1.7935e-05,-3e-08,0.0,0 STARLINK-3326,1 50844U 22001AT  22159.48911134 -.00000003  00000-0  17935-4 0  9999,2 50844  53.2182 210.1890 0002450  33.6908 326.4239 15.08835193 24698,6917.895,95.438,541.455,538.065,0.0
50844.0,STARLINK-3326,PAYLOAD,2022-06-08 13:19:42,15.08835082,0.0002458,53.2181,209.8917,33.7998,326.3151,1.601e-05,-3.4e-07,0.0,0 STARLINK-3326,1 50844U 22001AT  22159.55535159 -.00000034  00000-0  16010-4 0  9993,2 50844  53.2181 209.8917 0002458  33.7998 326.3151 15.08835082 23429,6917.895,95.438,541.461,538.06,0.0
50844.0,STARLINK-3326,PAYLOAD,2022-06-08 18:05:51,15.08837921,0.0002465,53.2181,208.9997,33.1638,326.9508,2.8657e-05,1.68e-06,0.0,0 STARLINK-3326,1 50844U 22001AT  22159.75406951  .00000168  00000-0  28657-4 0  9999,2 50844  53.2181 208.9997 0002465  33.1638 326.9508 15.08837921 23459,6917.887,95.438,541.457,538.0459999999998,0.0
50844.0,STARLINK-3326,PAYLOAD,2022-06-09 09:59:44,15.08827155,0.0002486,53.2181,206.0261,34.0633,326.0518,-8.0733e-05,-1.573e-05,0.0,0 STARLINK-3326,1 50844U 22001AT  22160.41648188 -.00001573  00000-0 -80733-4 0  9990,2 50844  53.2181 206.0261 0002486  34.0633 326.0518 15.08827155 23551,6917.92,95.438,541.504,538.065,0.0
50844.0,STARLINK-3326,PAYLOAD,2022-06-09 13:10:30,15.08826355,0.000251,53.218,205.4316,32.9859,327.129,-0.00012317,-2.247e-05,0.0,0 STARLINK-3326,1 50844U 22001AT  22160.54896465 -.00002247  00000-0 -12317-3 0  9998,2 50844  53.2180 205.4316 0002510  32.9859 327.1290 15.08826355 24853,6917.922,95.438,541.523,538.0509999999998,0.0
50844.0,STARLINK-3326,PAYLOAD,2022-06-10 11:25:54,15.08824743,0.0002491,53.218,201.2689,34.0798,326.0354,-1.3308e-05,-5e-06,0.0,0 STARLINK-3326,1 50844U 22001AT  22161.47632909 -.00000500  00000-0 -13308-4 0  9994,2 50844  53.2180 201.2689 0002491  34.0798 326.0354 15.08824743 23715,6917.927,95.439,541.515,538.069,0.0
50844.0,STARLINK-3326,PAYLOAD,2022-06-10 19:22:50,15.08825327,0.0002506,53.218,199.7822,34.6419,325.4736,-1.7536e-05,-5.67e-06,0.0,0 STARLINK-3326,1 50844U 22001AT  22161.80753210 -.00000567  00000-0 -17536-4 0  9990,2 50844  53.2180 199.7822 0002506  34.6419 325.4736 15.08825327 25042,6917.925,95.438,541.524,538.057,0.0
50844.0,STARLINK-3326,PAYLOAD,2022-06-11 19:13:41,15.08791483,0.0002896,53.2181,195.3216,43.3703,316.7517,-0.0001916,-3.333e-05,0.0,0 STARLINK-3326,1 50844U 22001AT  22162.80117296 -.00003333  00000-0 -19160-3 0  9997,2 50844  53.2181 195.3216 0002896  43.3703 316.7517 15.08791483 25198,6918.029,95.441,541.8969999999998,537.89,0.0
50844.0,STARLINK-3326,PAYLOAD,2022-06-12 03:10:35,15.08822025,0.0002526,53.2181,193.8348,34.2893,325.8262,3.3429e-05,2.43e-06,0.0,0 STARLINK-3326,1 50844U 22001AT  22163.13235060  .00000243  00000-0  33429-4 0  9994,2 50844  53.2181 193.8348 0002526  34.2893 325.8262 15.08822025 25247,6917.935,95.439,541.548,538.053,0.0
50844.0,STARLINK-3326,PAYLOAD,2022-06-12 09:32:07,15.08829647,0.0002599,53.2183,192.6456,35.8579,324.2587,9.5585e-05,1.233e-05,0.0,0 STARLINK-3326,1 50844U 22001AT  22163.39730664  .00001233  00000-0  95585-4 0  9993,2 50844  53.2183 192.6456 0002599  35.8579 324.2587 15.08829647 25288,6917.9119999999975,95.438,541.575,537.979,0.0
50844.0,STARLINK-3326,PAYLOAD,2022-06-12 19:04:25,15.08836116,0.000255,53.2185,190.8615,37.4319,322.685,0.00012753,1.742e-05,0.0,0 STARLINK-3326,1 50844U 22001AT  22163.79474441  .00001742  00000-0  12753-3 0  9995,2 50844  53.2185 190.8615 0002550  37.4319 322.6850 15.08836116 24063,6917.892,95.438,541.521,537.993,0.0
50844.0,STARLINK-3326,PAYLOAD,2022-06-13 01:25:58,15.08839671,0.0002544,53.2185,189.6721,37.1935,322.9233,0.00013224,1.817e-05,0.0,0 STARLINK-3326,1 50844U 22001AT  22164.05970314  .00001817  00000-0  13224-3 0  9992,2 50844  53.2185 189.6721 0002544  37.1935 322.9233 15.08839671 25384,6917.880999999999,95.438,541.506,537.986,0.0
